KUIPER-00095            
1 65134U 25171C   25254.04914304  .00029215  00000+0  83573-3 0  9995
2 65134  51.8756 257.5387 0004130 266.7078  93.3435 15.35719247  5943
KUIPER-00096            
1 65135U 25171D   25254.23945984  .00024644  00000+0  70026-3 0  9995
2 65135  51.8744 256.5624 0003936 252.1789 107.8768 15.36023896  5977
KUIPER-00097            
1 65136U 25171E   25254.05026360  .00034737  00000+0  99102-3 0  9994
2 65136  51.8764 257.5451 0004104 268.9879  91.0637 15.35716197  5939
KUIPER-00098            
1 65137U 25171F   25254.29732765  .00024868  00000+0  70119-3 0  9995
2 65137  51.8748 256.2069 0004337 224.3806 135.6833 15.36258861  5323
KUIPER-00099            
1 65138U 25171G   25253.84431578  .00026982  00000+0  76026-3 0  9996
2 65138  51.8754 258.4221 0004797 242.7398 117.3100 15.36232530  5908
KUIPER-00100            
1 65139U 25171H   25254.04340310  .00026210  00000+0  74510-3 0  9993
2 65139  51.8741 257.5007 0003823 245.3692 114.6896 15.35974535  5934
KUIPER-00102            
1 65140U 25171J   25254.04947372  .00020855  00000+0  60185-3 0  9998
2 65140  51.8741 257.5369 0003755 259.8403 100.2160 15.35642124  5932
KUIPER-00103            
1 65141U 25171K   25253.98040139  .00022821  00000+0  65132-3 0  9998
2 65141  51.8731 257.8247 0002977 251.1815 108.8849 15.35934274  5924
